{
  "type": "FeatureCollection",
  "features": [
    {
      "type": "Feature",
      "properties": {
        "norad_id": 24946,
        "name": "IRIDIUM 33",
        "group": "iridium-33-debris",
        "lat": 71.25090388787103,
        "lon": 78.92853786568516,
        "alt_km": 771.264844877569,
        "timestamp": "2025-12-12T18:57:44.514137+00:00",
        "meta_object_name": "IRIDIUM 33",
        "meta_object_id": "1997-051C",
        "meta_epoch": "2025-12-12T06:54:54.433728",
        "meta_mean_motion": 14.35037182,
        "meta_eccentricity": 0.00069711,
        "meta_inclination": 86.3869,
        "meta_ra_of_asc_node": 68.4112,
        "meta_arg_of_pericenter": 201.9073,
        "meta_mean_anomaly": 158.1826,
        "meta_ephemeris_type": 0,
        "meta_classification_type": "U",
        "meta_norad_cat_id": 24946,
        "meta_element_set_no": 999,
        "meta_rev_at_epoch": 47828,
        "meta_bstar": 0.00019352653,
        "meta_mean_motion_dot": 5.71e-06,
        "meta_mean_motion_ddot": 0,
        "tle_line1": "1 24946U 97051C   25346.28813002  .00000571  00000+0  19353-3 0  9997",
        "tle_line2": "2 24946  86.3869  68.4112 0006971 201.9073 158.1826 14.35037182478288"
      },
      "geometry": {
        "type": "Point",
        "coordinates": [
          78.92853786568516,
          71.25090388787103
        ]
      }
    },
    {
      "type": "Feature",
      "properties": {
        "norad_id": 33773,
        "name": "IRIDIUM 33 DEB",
        "group": "iridium-33-debris",
        "lat": 29.87726904255392,
        "lon": 62.64034214664328,
        "alt_km": 750.2013717202763,
        "timestamp": "2025-12-12T18:57:44.514162+00:00",
        "meta_object_name": "IRIDIUM 33 DEB",
        "meta_object_id": "1997-051L",
        "meta_epoch": "2025-12-12T07:10:33.831552",
        "meta_mean_motion": 14.43256022,
        "meta_eccentricity": 0.00124838,
        "meta_inclination": 86.4013,
        "meta_ra_of_asc_node": 60.7764,
        "meta_arg_of_pericenter": 147.544,
        "meta_mean_anomaly": 212.6532,
        "meta_ephemeris_type": 0,
        "meta_classification_type": "U",
        "meta_norad_cat_id": 33773,
        "meta_element_set_no": 999,
        "meta_rev_at_epoch": 88341,
        "meta_bstar": 0.00049735243,
        "meta_mean_motion_dot": 1.694e-05,
        "meta_mean_motion_ddot": 0,
        "tle_line1": "1 33773U 97051L   25346.29900268  .00001694  00000+0  49735-3 0  9991",
        "tle_line2": "2 33773  86.4013  60.7764 0012483 147.5440 212.6532 14.43256022883414"
      },
      "geometry": {
        "type": "Point",
        "coordinates": [
          62.64034214664328,
          29.87726904255392
        ]
      }
    },
    {
      "type": "Feature",
      "properties": {
        "norad_id": 33775,
        "name": "IRIDIUM 33 DEB",
        "group": "iridium-33-debris",
        "lat": 66.44603971598082,
        "lon": -138.85549029753736,
        "alt_km": 739.5982217434366,
        "timestamp": "2025-12-12T18:57:44.514176+00:00",
        "meta_object_name": "IRIDIUM 33 DEB",
        "meta_object_id": "1997-051N",
        "meta_epoch": "2025-12-12T05:23:08.151360",
        "meta_mean_motion": 14.41467189,
        "meta_eccentricity": 0.0014235,
        "meta_inclination": 86.3638,
        "meta_ra_of_asc_node": 49.7737,
        "meta_arg_of_pericenter": 156.1691,
        "meta_mean_anomaly": 263.4776,
        "meta_ephemeris_type": 0,
        "meta_classification_type": "U",
        "meta_norad_cat_id": 33775,
        "meta_element_set_no": 999,
        "meta_rev_at_epoch": 88133,
        "meta_bstar": 0.00050901024,
        "meta_mean_motion_dot": 1.672e-05,
        "meta_mean_motion_ddot": 0,
        "tle_line1": "1 33775U 97051N   25346.22439990  .00001672  00000+0  50901-3 0  9998",
        "tle_line2": "2 33775  86.3638  49.7737 0014235 156.1691 263.4776 14.41467189881335"
      },
      "geometry": {
        "type": "Point",
        "coordinates": [
          -138.85549029753736,
          66.44603971598082
        ]
      }
    },
    {
      "type": "Feature",
      "properties": {
        "norad_id": 33776,
        "name": "IRIDIUM 33 DEB",
        "group": "iridium-33-debris",
        "lat": -17.550900277057103,
        "lon": 79.61491864426807,
        "alt_km": 778.404871169113,
        "timestamp": "2025-12-12T18:57:44.514188+00:00",
        "meta_object_name": "IRIDIUM 33 DEB",
        "meta_object_id": "1997-051P",
        "meta_epoch": "2025-12-12T07:37:58.224000",
        "meta_mean_motion": 14.38234134,
        "meta_eccentricity": 0.00142872,
        "meta_inclination": 86.4036,
        "meta_ra_of_asc_node": 80.9529,
        "meta_arg_of_pericenter": 191.7377,
        "meta_mean_anomaly": 228.0903,
        "meta_ephemeris_type": 0,
        "meta_classification_type": "U",
        "meta_norad_cat_id": 33776,
        "meta_element_set_no": 999,
        "meta_rev_at_epoch": 88076,
        "meta_bstar": 0.00046256544,
        "meta_mean_motion_dot": 1.426e-05,
        "meta_mean_motion_ddot": 0,
        "tle_line1": "1 33776U 97051P   25346.31803500  .00001426  00000+0  46257-3 0  9997",
        "tle_line2": "2 33776  86.4036  80.9529 0014287 191.7377 228.0903 14.38234134880761"
      },
      "geometry": {
        "type": "Point",
        "coordinates": [
          79.61491864426807,
          -17.550900277057103
        ]
      }
    },
    {
      "type": "Feature",
      "properties": {
        "norad_id": 33777,
        "name": "IRIDIUM 33 DEB",
        "group": "iridium-33-debris",
        "lat": 46.564998080573304,
        "lon": -148.65379238972946,
        "alt_km": 704.9957466771993,
        "timestamp": "2025-12-12T18:57:44.514199+00:00",
        "meta_object_name": "IRIDIUM 33 DEB",
        "meta_object_id": "1997-051Q",
        "meta_epoch": "2025-12-12T03:30:11.220480",
        "meta_mean_motion": 14.55608327,
        "meta_eccentricity": 0.00051496,
        "meta_inclination": 86.3787,
        "meta_ra_of_asc_node": 35.4615,
        "meta_arg_of_pericenter": 251.76,
        "meta_mean_anomaly": 108.3047,
        "meta_ephemeris_type": 0,
        "meta_classification_type": "U",
        "meta_norad_cat_id": 33777,
        "meta_element_set_no": 999,
        "meta_rev_at_epoch": 88525,
        "meta_bstar": 0.0013938391,
        "meta_mean_motion_dot": 6.101e-05,
        "meta_mean_motion_ddot": 0,
        "tle_line1": "1 33777U 97051Q   25346.14596320  .00006101  00000+0  13938-2 0  9992",
        "tle_line2": "2 33777  86.3787  35.4615 0005149 251.7600 108.3047 14.55608327885254"
      },
      "geometry": {
        "type": "Point",
        "coordinates": [
          -148.65379238972946,
          46.564998080573304
        ]
      }
    },
    {
      "type": "Feature",
      "properties": {
        "norad_id": 33850,
        "name": "IRIDIUM 33 DEB",
        "group": "iridium-33-debris",
        "lat": 84.388423949683,
        "lon": 169.53182238390278,
        "alt_km": 740.5014424084575,
        "timestamp": "2025-12-12T18:57:44.514211+00:00",
        "meta_object_name": "IRIDIUM 33 DEB",
        "meta_object_id": "1997-051T",
        "meta_epoch": "2025-12-12T03:47:17.414016",
        "meta_mean_motion": 14.4214467,
        "meta_eccentricity": 0.00121703,
        "meta_inclination": 86.3418,
        "meta_ra_of_asc_node": 30.43,
        "meta_arg_of_pericenter": 162.7962,
        "meta_mean_anomaly": 251.1586,
        "meta_ephemeris_type": 0,
        "meta_classification_type": "U",
        "meta_norad_cat_id": 33850,
        "meta_element_set_no": 999,
        "meta_rev_at_epoch": 88144,
        "meta_bstar": 0.000462436,
        "meta_mean_motion_dot": 1.541e-05,
        "meta_mean_motion_ddot": 0,
        "tle_line1": "1 33850U 97051T   25346.15784044  .00001541  00000+0  46244-3 0  9997",
        "tle_line2": "2 33850  86.3418  30.4300 0012170 162.7962 251.1586 14.42144670881441"
      },
      "geometry": {
        "type": "Point",
        "coordinates": [
          169.53182238390278,
          84.388423949683
        ]
      }
    },
    {
      "type": "Feature",
      "properties": {
        "norad_id": 33853,
        "name": "IRIDIUM 33 DEB",
        "group": "iridium-33-debris",
        "lat": 71.8048518007377,
        "lon": 157.49914507680347,
        "alt_km": 980.8816254065086,
        "timestamp": "2025-12-12T18:57:44.514222+00:00",
        "meta_object_name": "IRIDIUM 33 DEB",
        "meta_object_id": "1997-051W",
        "meta_epoch": "2025-12-11T23:41:06.381888",
        "meta_mean_motion": 13.99054711,
        "meta_eccentricity": 0.020703,
        "meta_inclination": 86.0002,
        "meta_ra_of_asc_node": 350.1415,
        "meta_arg_of_pericenter": 238.1458,
        "meta_mean_anomaly": 148.4368,
        "meta_ephemeris_type": 0,
        "meta_classification_type": "U",
        "meta_norad_cat_id": 33853,
        "meta_element_set_no": 999,
        "meta_rev_at_epoch": 85335,
        "meta_bstar": 0.0027296,
        "meta_mean_motion_dot": 4.759e-05,
        "meta_mean_motion_ddot": 0,
        "tle_line1": "1 33853U 97051W   25345.98687942  .00004759  00000+0  27296-2 0  9998",
        "tle_line2": "2 33853  86.0002 350.1415 0207030 238.1458 148.4368 13.99054711853350"
      },
      "geometry": {
        "type": "Point",
        "coordinates": [
          157.49914507680347,
          71.8048518007377
        ]
      }
    }
  ]
}